{
  "type": "FeatureCollection",
  "features": [
    {
      "type": "Feature",
      "properties": {
        "norad_id": 57400,
        "name": "TIANMU-1 08",
        "group": "weather",
        "lat": -53.79703951510938,
        "lon": -159.06229076636671,
        "alt_km": 492.7369181833528,
        "timestamp": "2025-12-07T05:38:09.551499+00:00",
        "meta_object_name": "TIANMU-1 08",
        "meta_object_id": "2023-101B",
        "meta_epoch": "2025-12-06T14:28:04.999296",
        "meta_mean_motion": 15.27924556,
        "meta_eccentricity": 0.00075553,
        "meta_inclination": 97.2869,
        "meta_ra_of_asc_node": 30.3878,
        "meta_arg_of_pericenter": 100.9217,
        "meta_mean_anomaly": 259.2873,
        "meta_ephemeris_type": 0,
        "meta_classification_type": "U",
        "meta_norad_cat_id": 57400,
        "meta_element_set_no": 999,
        "meta_rev_at_epoch": 13221,
        "meta_bstar": 0.00043567692,
        "meta_mean_motion_dot": 0.00011817,
        "meta_mean_motion_ddot": 0,
        "tle_line1": "1 57400U 23101B   25340.60283564  .00011817  00000+0  43568-3 0  9997",
        "tle_line2": "2 57400  97.2869  30.3878 0007555 100.9217 259.2873 15.27924556132211"
      },
      "geometry": {
        "type": "Point",
        "coordinates": [
          -159.06229076636671,
          -53.79703951510938
        ]
      }
    },
    {
      "type": "Feature",
      "properties": {
        "norad_id": 57401,
        "name": "TIANMU-1 09",
        "group": "weather",
        "lat": -53.08830471775402,
        "lon": 40.324612035771814,
        "alt_km": 493.0558681863149,
        "timestamp": "2025-12-07T05:38:09.551508+00:00",
        "meta_object_name": "TIANMU-1 09",
        "meta_object_id": "2023-101C",
        "meta_epoch": "2025-12-06T14:09:12.502656",
        "meta_mean_motion": 15.27948865,
        "meta_eccentricity": 0.00068078,
        "meta_inclination": 97.2826,
        "meta_ra_of_asc_node": 29.8917,
        "meta_arg_of_pericenter": 100.485,
        "meta_mean_anomaly": 259.7158,
        "meta_ephemeris_type": 0,
        "meta_classification_type": "U",
        "meta_norad_cat_id": 57401,
        "meta_element_set_no": 999,
        "meta_rev_at_epoch": 13221,
        "meta_bstar": 0.00044207403,
        "meta_mean_motion_dot": 0.00011999,
        "meta_mean_motion_ddot": 0,
        "tle_line1": "1 57401U 23101C   25340.58972804  .00011999  00000+0  44207-3 0  9999",
        "tle_line2": "2 57401  97.2826  29.8917 0006807 100.4850 259.7158 15.27948865132219"
      },
      "geometry": {
        "type": "Point",
        "coordinates": [
          40.324612035771814,
          -53.08830471775402
        ]
      }
    },
    {
      "type": "Feature",
      "properties": {
        "norad_id": 57402,
        "name": "TIANMU-1 10",
        "group": "weather",
        "lat": 60.569617008283196,
        "lon": -135.51759351323793,
        "alt_km": 470.5572962879569,
        "timestamp": "2025-12-07T05:38:09.551519+00:00",
        "meta_object_name": "TIANMU-1 10",
        "meta_object_id": "2023-101D",
        "meta_epoch": "2025-12-06T14:58:25.794624",
        "meta_mean_motion": 15.27940395,
        "meta_eccentricity": 0.0008541,
        "meta_inclination": 97.2906,
        "meta_ra_of_asc_node": 30.7685,
        "meta_arg_of_pericenter": 101.1561,
        "meta_mean_anomaly": 259.064,
        "meta_ephemeris_type": 0,
        "meta_classification_type": "U",
        "meta_norad_cat_id": 57402,
        "meta_element_set_no": 999,
        "meta_rev_at_epoch": 13221,
        "meta_bstar": 0.00046837649,
        "meta_mean_motion_dot": 0.0001272,
        "meta_mean_motion_ddot": 0,
        "tle_line1": "1 57402U 23101D   25340.62390966  .00012720  00000+0  46838-3 0  9993",
        "tle_line2": "2 57402  97.2906  30.7685 0008541 101.1561 259.0640 15.27940395132215"
      },
      "geometry": {
        "type": "Point",
        "coordinates": [
          -135.51759351323793,
          60.569617008283196
        ]
      }
    },
    {
      "type": "Feature",
      "properties": {
        "norad_id": 57490,
        "name": "FENGYUN 3F",
        "group": "weather",
        "lat": -2.9247654096098583,
        "lon": 50.06559021344677,
        "alt_km": 829.0166419983507,
        "timestamp": "2025-12-07T05:38:09.551528+00:00",
        "meta_object_name": "FENGYUN 3F",
        "meta_object_id": "2023-111A",
        "meta_epoch": "2025-12-06T14:25:43.959072",
        "meta_mean_motion": 14.19891176,
        "meta_eccentricity": 6.622e-05,
        "meta_inclination": 98.7093,
        "meta_ra_of_asc_node": 48.9935,
        "meta_arg_of_pericenter": 90.0396,
        "meta_mean_anomaly": 270.0856,
        "meta_ephemeris_type": 0,
        "meta_classification_type": "U",
        "meta_norad_cat_id": 57490,
        "meta_element_set_no": 999,
        "meta_rev_at_epoch": 12153,
        "meta_bstar": 0.00012052982,
        "meta_mean_motion_dot": 2.12e-06,
        "meta_mean_motion_ddot": 0,
        "tle_line1": "1 57490U 23111A   25340.60120323  .00000212  00000+0  12053-3 0  9992",
        "tle_line2": "2 57490  98.7093  48.9935 0000662  90.0396 270.0856 14.19891176121539"
      },
      "geometry": {
        "type": "Point",
        "coordinates": [
          50.06559021344677,
          -2.9247654096098583
        ]
      }
    },
    {
      "type": "Feature",
      "properties": {
        "norad_id": 58584,
        "name": "ARKTIKA-M 2",
        "group": "weather",
        "lat": 44.51010180176708,
        "lon": -34.29189549957762,
        "alt_km": 23188.889860348485,
        "timestamp": "2025-12-07T05:38:09.551541+00:00",
        "meta_object_name": "ARKTIKA-M 2",
        "meta_object_id": "2023-198A",
        "meta_epoch": "2025-12-03T08:34:19.284960",
        "meta_mean_motion": 2.00605176,
        "meta_eccentricity": 0.68642509,
        "meta_inclination": 63.2223,
        "meta_ra_of_asc_node": 175.9121,
        "meta_arg_of_pericenter": 268.1397,
        "meta_mean_anomaly": 18.842,
        "meta_ephemeris_type": 0,
        "meta_classification_type": "U",
        "meta_norad_cat_id": 58584,
        "meta_element_set_no": 999,
        "meta_rev_at_epoch": 1439,
        "meta_bstar": 0,
        "meta_mean_motion_dot": 2.24e-06,
        "meta_mean_motion_ddot": 0,
        "tle_line1": "1 58584U 23198A   25337.35716765  .00000224  00000+0  00000+0 0  9999",
        "tle_line2": "2 58584  63.2223 175.9121 6864250 268.1397  18.8420  2.00605176 14390"
      },
      "geometry": {
        "type": "Point",
        "coordinates": [
          -34.29189549957762,
          44.51010180176708
        ]
      }
    },
    {
      "type": "Feature",
      "properties": {
        "norad_id": 58645,
        "name": "TIANMU-1 11",
        "group": "weather",
        "lat": 6.032843954336755,
        "lon": 0.1724178647821918,
        "alt_km": 489.69030914846553,
        "timestamp": "2025-12-07T05:38:09.551554+00:00",
        "meta_object_name": "TIANMU-1 11",
        "meta_object_id": "2023-205A",
        "meta_epoch": "2025-12-06T13:51:23.012352",
        "meta_mean_motion": 15.24488081,
        "meta_eccentricity": 0.0008492,
        "meta_inclination": 97.3603,
        "meta_ra_of_asc_node": 0.3093,
        "meta_arg_of_pericenter": 335.067,
        "meta_mean_anomaly": 25.0156,
        "meta_ephemeris_type": 0,
        "meta_classification_type": "U",
        "meta_norad_cat_id": 58645,
        "meta_element_set_no": 999,
        "meta_rev_at_epoch": 10815,
        "meta_bstar": 0.00039896571,
        "meta_mean_motion_dot": 9.747e-05,
        "meta_mean_motion_ddot": 0,
        "tle_line1": "1 58645U 23205A   25340.57734968  .00009747  00000+0  39897-3 0  9998",
        "tle_line2": "2 58645  97.3603   0.3093 0008492 335.0670  25.0156 15.24488081108155"
      },
      "geometry": {
        "type": "Point",
        "coordinates": [
          0.1724178647821918,
          6.032843954336755
        ]
      }
    },
    {
      "type": "Feature",
      "properties": {
        "norad_id": 58646,
        "name": "TIANMU-1 12",
        "group": "weather",
        "lat": -40.244106497402385,
        "lon": 174.48248132508704,
        "alt_km": 499.6485331392696,
        "timestamp": "2025-12-07T05:38:09.551567+00:00",
        "meta_object_name": "TIANMU-1 12",
        "meta_object_id": "2023-205B",
        "meta_epoch": "2025-12-06T14:29:32.462880",
        "meta_mean_motion": 15.24403421,
        "meta_eccentricity": 0.00063209,
        "meta_inclination": 97.3591,
        "meta_ra_of_asc_node": 0.1429,
        "meta_arg_of_pericenter": 319.6277,
        "meta_mean_anomaly": 40.449,
        "meta_ephemeris_type": 0,
        "meta_classification_type": "U",
        "meta_norad_cat_id": 58646,
        "meta_element_set_no": 999,
        "meta_rev_at_epoch": 10814,
        "meta_bstar": 0.00043763592,
        "meta_mean_motion_dot": 0.00010669,
        "meta_mean_motion_ddot": 0,
        "tle_line1": "1 58646U 23205B   25340.60384795  .00010669  00000+0  43764-3 0  9995",
        "tle_line2": "2 58646  97.3591   0.1429 0006320 319.6277  40.4490 15.24403421108148"
      },
      "geometry": {
        "type": "Point",
        "coordinates": [
          174.48248132508704,
          -40.244106497402385
        ]
      }
    }
  ]
}